HST                     
1 20580U 90037B   26063.13533952  .00010319  00000+0  34382-3 0  9998
2 20580  28.4703  77.8870 0001724  70.3509 289.7272 15.29378725772468
POLAR                   
1 23802U 96013A   26061.74629649  .00000178  00000+0  00000+0 0  9990
2 23802  79.7411 228.2678 6362278 212.6879  83.6731  1.29845818143473
SWAS                    
1 25560U 98071A   26063.62912527  .00006440  00000+0  41448-3 0  9991
2 25560  69.8966 137.0023 0003623  21.1508 338.9805 15.08836294481499
CXO                     
1 25867U 99040B   26066.24394023  .00000830  00000+0  00000+0 0  9996
2 25867  54.5001 119.7161 7997895 310.7431   0.4039  0.37807298 16944
XMM-NEWTON              
1 25989U 99066A   26061.64181856  .00000062  00000+0  00000+0 0  9993
2 25989  65.0189 284.3763 4712552  66.8130 359.9781  0.50131664 22470
TERRA                   
1 25994U 99068A   26063.78487468  .00000631  00000+0  13779-3 0  9999
2 25994  97.9602 117.4068 0002392 163.1129 261.5498 14.61008869394363
CLUSTER II-FM7 (SAMBA)  
1 26410U 00041A   26063.25310773  .00003639  00000+0  00000+0 0  9992
2 26410 148.9920  34.5676 8908777 250.6745 359.7226  0.44785609 19832
CLUSTER II-FM8 (TANGO)  
1 26464U 00045B   26049.06287974  .00004776  00000+0  00000+0 0  9997
2 26464 149.0711  33.5376 8890045 249.4570 359.4916  0.44405995 19769
ODIN                    
1 26702U 01007A   26063.07607674  .00058508  00000+0  77727-3 0  9997
2 26702  97.4079  98.8926 0004097 154.0262 206.1200 15.58021445372960
TIMED                   
1 26998U 01055B   26063.49332215  .00001962  00000+0  18293-3 0  9994
2 26998  74.0660  85.7795 0002976 281.4853  78.5997 14.95004039315172
CORIOLIS                
1 27640U 03001A   26063.48511115  .00000218  00000+0  12317-3 0  9993
2 27640  98.7161  71.9570 0014543 150.8057 209.3936 14.19910551199361
SORCE                   
1 27651U 03004A   26063.58311661  .00004757  00000+0  35679-3 0  9991
2 27651  39.9904 138.2071 0016533  16.5443 343.5888 15.03051755256150
MOST                    
1 27843U 03031D   26063.46011433  .00000132  00000+0  80426-4 0  9999
2 27843  98.7082  72.6337 0009648 188.6944 171.4068 14.21297664175838
SCISAT 1                
1 27858U 03036A   26063.34764469  .00001400  00000+0  18401-3 0  9993
2 27858  73.9316  19.6240 0005875 113.1993 246.9803 14.81299784215929
SWIFT                   
1 28485U 04047A   26063.81034094  .00051743  00000+0  62838-3 0  9997
2 28485  20.5530 264.3196 0003010 328.0260  32.0001 15.58801779170500
HINODE (SOLAR-B)        
1 29479U 06041A   26063.80183654  .00000991  00000+0  17937-3 0  9992
2 29479  98.0626  81.4680 0016158 258.3212 101.6180 14.68465034 39555
SHIJIAN-6 02A (SJ-6 02A)
1 29505U 06046A   26063.89197176  .00004713  00000+0  25167-3 0  9990
2 29505  97.6506 104.1991 0004578 124.3841 235.7825 15.15611758 56461
SHIJIAN-6 02B (SJ-6 02B)
1 29506U 06046B   26063.83150692  .00003316  00000+0  26422-3 0  9990
2 29506  97.7049  93.6056 0014168  58.8983 301.3629 15.00970573 55089
FGRST (GLAST)           
1 33053U 08029A   26063.70461148  .00005215  00000+0  19977-3 0  9999
2 33053  25.5812 209.6235 0008405 169.3273 190.7444 15.23284440979887
SDO                     
1 36395U 10005A   26063.06561393 -.00000066  00000+0  00000+0 0  9993
2 36395  34.4299  87.9334 0000327  66.0578 289.5342  1.00275428 59003
CRYOSAT 2               
1 36508U 10013A   26063.80550102  .00000282  00000+0  69170-4 0  9993
2 36508  92.0224 252.0113 0002115  87.0414 273.1035 14.51906075842935
X-SAT                   
1 37389U 11015C   26063.82879786  .00000170  00000+0  90079-4 0  9996
2 37389  98.3417  45.8775 0012941 292.0910  67.8896 14.25170216772818
GCOM-W1 (SHIZUKU)       
1 38337U 12025A   26063.78654314  .00000915  00000+0  21309-3 0  9991
2 38337  98.2051   5.9210 0001500  75.5547 313.9771 14.57089916733832
NUSTAR                  
1 38358U 12031A   26063.91668981  .00008905  00000+0  51248-3 0  9993
2 38358   6.0268  95.6354 0008276 348.5150 107.1571 15.07646637  1303
NEOSSAT                 
1 39089U 13009D   26063.46929375  .00000344  00000+0  13365-3 0  9995
2 39089  98.4136 246.0004 0010724 193.1162 166.9747 14.35782520681715
BRITE-AUSTRIA           
1 39091U 13009F   26063.45016346  .00000360  00000+0  13733-3 0  9999
2 39091  98.3950 245.4888 0010049 186.6674 173.4381 14.36492679682014
IRIS                    
1 39197U 13033A   26063.50854155  .00002171  00000+0  25596-3 0  9999
2 39197  97.9397 263.0778 0023481 303.2105  56.6859 14.85627809684838
HISAKI (SPRINT-A)       
1 39253U 13049A   26063.25212383  .00000122  00000+0  73781-4 0  9996
2 39253  29.7220  33.4998 0136720 246.0358 112.5843 13.55530088617173
CASSIOPE                
1 39265U 13055A   26063.80961402  .00044076 -50954-6  53156-3 0  9990
2 39265  80.9193 192.8070 0317128  52.4850 310.4752 15.18339858651791
STSAT-3                 
1 39422U 13066G   26063.88278705  .00004740  00000+0  36535-3 0  9997
2 39422  97.6056  35.5979 0011952  31.1111 329.0819 15.02037391668541
SWARM B                 
1 39451U 13067A   26063.75679162  .00006263  00000+0  22957-3 0  9993
2 39451  87.7489  13.9825 0003704  89.2649 270.9024 15.27800610667291
SWARM A                 
1 39452U 13067B   26063.74737093  .00014352  00000+0  26811-3 0  9992
2 39452  87.3286  94.9896 0003033  93.3574 266.8032 15.48618471690078
SWARM C                 
1 39453U 13067C   26063.74726213  .00014449  00000+0  26993-3 0  9993
2 39453  87.3284  93.5712 0003045  93.4380 266.7228 15.48617997690032
BRITE-CA1 (TORONTO)     
1 40020U 14033L   26063.32853596  .00001935  00000+0  29920-3 0  9997
2 40020  97.9558 194.3075 0077710 252.3100 106.9613 14.72445502626784
OCO 2                   
1 40059U 14035A   26063.77745677  .00000802  00000+0  18822-3 0  9991
2 40059  98.2194   6.6944 0001167  91.7109 268.4223 14.57087533620844
BRITE-PL2 (HEWELIUSZ)   
1 40119U 14049B   26063.71746169  .00003990  00000+0  37746-3 0  9991
2 40119  97.8983 175.0192 0015558  96.6588 263.6403 14.94150369625843
MMS 1                   
1 40482U 15011A   26063.91668981 -.00001913  00000+0  00000+0 0  9994
2 40482  70.7316 350.2264 8412584 165.2360 102.9657  0.28322917  1332
MMS 2                   
1 40483U 15011B   26063.91668981 -.00001913  00000+0  00000+0 0  9995
2 40483  70.7319 350.2285 8413315 165.2421 102.9492  0.28322922  1333
MMS 3                   
1 40484U 15011C   26063.91668981 -.00001913  00000+0  00000+0 0  9996
2 40484  70.7342 350.2332 8412600 165.2363 102.9578  0.28322890  1333
MMS 4                   
1 40485U 15011D   26063.91668981 -.00001913  00000+0  00000+0 0  9997
2 40485  70.7324 350.2283 8412105 165.2436 102.9434  0.28322889  1339
ASTROSAT                
1 40930U 15052A   26063.54137454  .00002563  00000+0  23116-3 0  9990
2 40930   5.9956 188.4870 0008304 336.9081  23.0673 14.82281738564272
DAMPE                   
1 41173U 15078A   26063.83146417  .00001614  00000+0  57288-4 0  9993
2 41173  97.4576  68.7976 0013944  86.5013 273.7822 15.30476265568585
PISAT                   
1 41784U 16059B   26063.51143081  .00001531  00000+0  26895-3 0  9997
2 41784  97.8189  68.4778 0029129 177.1121 183.0258 14.68758686504376
HXMT (HUIYAN)           
1 42758U 17034A   26063.84082168  .00007372  00000+0  36894-3 0  9996
2 42758  43.0151  43.6284 0032437 206.3154 153.6047 15.17385045481805
FLYING LAPTOP           
1 42831U 17042G   26063.84324821  .00005155  00000+0  41230-3 0  9999
2 42831  97.4254 223.7338 0018665 111.1672 249.1549 15.00479867470804
ZHANGHENG 1-01 (CSES-1) 
1 43194U 18015C   26063.85259831  .00013583  00000+0  61511-3 0  9990
2 43194  97.6744 227.4941 0014797 262.5843  97.3710 15.20907748448788
SALSAT                  
1 46495U 20068K   26063.50003082  .00014646  00000+0  53709-3 0  9996
2 46495  97.8848  60.3287 0008688 318.7431  41.3149 15.28060764299367
IXPE                    
1 49954U 21121A   26063.83336806  .00025345  00000+0  14884-2 0  9997
2 49954   0.2309  26.2234 0007617 301.9590  67.5177 15.09131497  5811
